TRANSPORTER-12 OBJECT AZ
1 62656U 25009AZ  26068.71026235  .00016057  00000+0  54903-3 0  9991
2 62656  97.3981 151.9913 0000987  45.3581 314.7740 15.30349724 63792
STARLINK-35299          
1 66072U 25235Q   26068.71657132  .00037237  00000+0  12634-2 0  9991
2 66072  53.1563 245.2827 0000867 116.1157 243.9933 15.30191359 22924
